OBJECT_NAME,OBJECT_ID,EPOCH,MEAN_MOTION,ECCENTRICITY,INCLINATION,RA_OF_ASC_NODE,ARG_OF_PERICENTER,MEAN_ANOMALY,EPHEMERIS_TYPE,CLASSIFICATION_TYPE,NORAD_CAT_ID,ELEMENT_SET_NO,REV_AT_EPOCH,BSTAR,MEAN_MOTION_DOT,MEAN_MOTION_DDOT
PROBA-1,2001-049B,2026-06-17T14:25:52.994784,15.07495525,.00564486,97.9594,177.1482,120.4355,240.2466,0,U,26958,999,34368,.87443166E-4,.1304E-4,0
CUTE-1 (CO-55),2003-031E,2026-06-17T12:41:38.028768,14.24335893,.00095643,98.6736,177.0834,176.9717,183.1521,0,U,27844,999,19172,.11502661E-3,.222E-5,0
CUBESAT XI-IV (CO-57),2003-031J,2026-06-16T22:55:35.785920,14.23620738,.0009009,98.6766,176.2299,197.6805,162.4061,0,U,27848,999,19134,.10575224E-3,.197E-5,0
APRIZESAT 4,2009-041D,2026-06-17T02:55:56.506656,14.83879249,.00424065,98.1413,243.4414,323.2689,36.5620,0,U,35684,999,91135,.72133164E-4,.548E-5,0
APRIZESAT 3,2009-041F,2026-06-17T08:47:43.296576,14.96242028,.00627911,98.2062,321.5987,67.1799,293.6036,0,U,35686,999,91640,.13572058E-3,.1525E-4,0
PROBA-2,2009-059B,2026-06-17T10:43:23.516544,14.54862537,.00119579,98.2449,351.7959,281.2389,78.7464,0,U,36037,999,88156,.41233694E-4,.132E-5,0
APRIZESAT 5,2011-044E,2026-06-17T08:16:51.025728,14.81076302,.00523218,98.2452,101.3899,3.8419,356.3184,0,U,37792,999,79881,.121252E-3,.903E-5,0
APRIZESAT 6,2011-044F,2026-06-17T08:39:38.095776,14.76916063,.00445093,98.2364,78.8640,85.5033,33.1516,0,U,37793,999,79717,.93226528E-4,.61E-5,0
PROBA-V,2013-021A,2026-06-17T12:58:50.667744,14.23596995,.00051545,98.3584,147.1300,122.5817,237.5861,0,U,39159,999,68116,.35318996E-4,.39E-6,0
APRIZESAT 7,2013-066A,2026-06-17T08:31:30.605376,14.91564342,.00350151,97.7709,121.5727,208.7011,151.2281,0,U,39416,999,68125,.1065988E-3,.1023E-4,0
APRIZESAT 8,2013-066K,2026-06-17T09:51:06.660864,14.87652987,.00444167,97.8221,115.8752,285.8061,73.8261,0,U,39425,999,67970,.8910352E-4,.767E-5,0
BUGSAT-1 (TITA),2014-033E,2026-06-17T13:32:45.125952,15.15588602,.00280797,98.0434,261.1351,176.8019,183.3397,0,U,40014,999,65589,.19159023E-3,.3596E-4,0
SAUDISAT 4,2014-033G,2026-06-17T09:20:42.099360,14.79544974,.00461531,97.7583,314.5169,73.3541,287.2731,0,U,40016,999,64610,.75814831E-4,.526E-5,0
APRIZESAT 9,2014-033J,2026-06-17T08:14:25.714752,14.74214626,.00657022,97.9061,301.5381,198.6583,161.2217,0,U,40018,999,64358,.89218285E-4,.557E-5,0
APRIZESAT 10,2014-033K,2026-06-17T07:56:15.338112,14.70882505,.00773897,97.9650,295.2869,273.3797,85.8560,0,U,40019,999,64227,.61937837E-4,.343E-5,0
TECHDEMOSAT-1 (TDS-1),2014-037H,2026-06-17T10:09:07.206912,15.13295674,.00044953,98.3812,160.6591,264.7364,95.3352,0,U,40076,999,64826,.33546997E-3,.5896E-4,0
TECHNOSAT,2017-042E,2026-06-17T10:46:10.681536,15.04963189,.00189679,97.4288,326.0959,93.3985,266.9412,0,U,42829,999,48674,.22413538E-3,.313E-4,0
FLYING LAPTOP,2017-042G,2026-06-17T14:03:04.684896,15.01148097,.00195966,97.4686,324.1025,120.3447,239.9718,0,U,42831,999,48651,.22936421E-3,.2893E-4,0
HAWK-A,2018-099H,2026-06-17T03:37:45.213600,15.24642469,.00331023,97.3910,220.3877,286.0239,73.7353,0,U,43765,999,41309,.20357172E-3,.5029E-4,0
HAWK-B,2018-099AN,2026-06-17T02:34:05.110176,15.22825315,.0030487,97.3960,219.7593,305.2659,54.5726,0,U,43794,999,41302,.20062226E-3,.468E-4,0
HAWK-C,2018-099AT,2026-06-17T14:04:09.454656,15.28107458,.00387365,97.3887,221.7312,284.3136,75.3804,0,U,43799,999,41397,.21008261E-3,.5807E-4,0
SALSAT,2020-068K,2026-06-17T12:54:41.050368,15.29803905,.00080404,97.8847,171.6239,306.6544,53.3955,0,U,46495,999,31541,.21820696E-3,.6219E-4,0
HAWK-2C,2021-006CT,2026-06-17T14:36:31.175424,15.34667560,.00067377,97.2273,212.9102,184.1781,175.9408,0,U,47502,999,29956,.15670798E-3,.519E-4,0
HAWK-2A,2021-006CW,2026-06-17T03:42:51.632928,15.34677571,.00061035,97.2315,213.1431,188.7949,171.3189,0,U,47505,999,29949,.15201874E-3,.5033E-4,0
HAWK-2B,2021-006CZ,2026-06-17T14:33:38.352960,15.34771289,.00067473,97.2185,211.9174,185.4746,174.6425,0,U,47508,999,29956,.17723788E-3,.59E-4,0
HAWK-3B,2021-059BE,2026-06-17T12:22:21.315072,15.69577683,.00031952,97.6650,5.2542,330.6002,29.5079,0,U,48931,999,27790,.31107618E-3,.3666E-3,0
HAWK-3C,2021-059BX,2026-06-17T12:21:53.251488,15.69577806,.00035289,97.6772,10.9402,331.2504,28.8563,0,U,48948,999,27790,.29163387E-3,.34353E-3,0
HAWK-3A,2021-059CG,2026-06-17T12:21:41.314464,15.69595385,.00036964,97.6717,8.1459,333.9883,26.1192,0,U,48957,999,27790,.30965232E-3,.3652E-3,0
HAWK-5C,2022-057Y,2026-06-17T10:20:48.528672,15.51400159,.0004985,97.6601,328.1130,82.4478,277.7340,0,U,52754,999,22638,.26482846E-3,.15508E-3,0
HAWK-5B,2022-057AA,2026-06-17T10:20:35.435616,15.51400967,.00056556,97.6610,326.4621,75.3473,284.8405,0,U,52756,999,22638,.2597781E-3,.15212E-3,0
